{
  "type": "FeatureCollection",
  "features": [
    {
      "type": "Feature",
      "properties": {
        "OBJECT_NAME": "INTELSAT 10-02",
        "OBJECT_ID": "2004-022A",
        "EPOCH": "2025-11-29T17:17:31.918848",
        "MEAN_MOTION": 1.00270283,
        "ECCENTRICITY": 9.27e-05,
        "INCLINATION": 0.0324,
        "RA_OF_ASC_NODE": 78.9238,
        "ARG_OF_PERICENTER": 188.7573,
        "MEAN_ANOMALY": 59.5813,
        "EPHEMERIS_TYPE": 0,
        "CLASSIFICATION_TYPE": "U",
        "NORAD_CAT_ID": 28358,
        "ELEMENT_SET_NO": 999,
        "REV_AT_EPOCH": 7855,
        "BSTAR": 0,
        "MEAN_MOTION_DOT": 1e-07,
        "MEAN_MOTION_DDOT": 0,
        "norad_id": 28358,
        "name": "INTELSAT 10-02",
        "group": "intelsat",
        "longitude_deg": NaN,
        "latitude_deg": NaN,
        "alt_km": NaN,
        "orbit_class": "HEO",
        "timestamp": "2025-11-30T04:58:49.599255+00:00"
      },
      "geometry": {
        "type": "Point",
        "coordinates": [
          NaN,
          NaN
        ]
      }
    },
    {
      "type": "Feature",
      "properties": {
        "OBJECT_NAME": "XM-3 (RHYTHM)",
        "OBJECT_ID": "2005-008A",
        "EPOCH": "2025-11-29T04:26:53.229984",
        "MEAN_MOTION": 0.98954999,
        "ECCENTRICITY": 7.272e-05,
        "INCLINATION": 0.136,
        "RA_OF_ASC_NODE": 80.3399,
        "ARG_OF_PERICENTER": 284.3436,
        "MEAN_ANOMALY": 308.9712,
        "EPHEMERIS_TYPE": 0,
        "CLASSIFICATION_TYPE": "U",
        "NORAD_CAT_ID": 28626,
        "ELEMENT_SET_NO": 999,
        "REV_AT_EPOCH": 4061,
        "BSTAR": 0,
        "MEAN_MOTION_DOT": -1.52e-06,
        "MEAN_MOTION_DDOT": 0,
        "norad_id": 28626,
        "name": "XM-3 (RHYTHM)",
        "group": "intelsat",
        "longitude_deg": NaN,
        "latitude_deg": NaN,
        "alt_km": NaN,
        "orbit_class": "HEO",
        "timestamp": "2025-11-30T04:58:49.599389+00:00"
      },
      "geometry": {
        "type": "Point",
        "coordinates": [
          NaN,
          NaN
        ]
      }
    },
    {
      "type": "Feature",
      "properties": {
        "OBJECT_NAME": "DIRECTV 8",
        "OBJECT_ID": "2005-019A",
        "EPOCH": "2025-11-29T15:01:07.482720",
        "MEAN_MOTION": 1.00271159,
        "ECCENTRICITY": 0.0003083,
        "INCLINATION": 0.0272,
        "RA_OF_ASC_NODE": 71.0961,
        "ARG_OF_PERICENTER": 181.6472,
        "MEAN_ANOMALY": 282.2777,
        "EPHEMERIS_TYPE": 0,
        "CLASSIFICATION_TYPE": "U",
        "NORAD_CAT_ID": 28659,
        "ELEMENT_SET_NO": 999,
        "REV_AT_EPOCH": 7507,
        "BSTAR": 0,
        "MEAN_MOTION_DOT": 2.2e-07,
        "MEAN_MOTION_DDOT": 0,
        "norad_id": 28659,
        "name": "DIRECTV 8",
        "group": "intelsat",
        "longitude_deg": NaN,
        "latitude_deg": NaN,
        "alt_km": NaN,
        "orbit_class": "HEO",
        "timestamp": "2025-11-30T04:58:49.599410+00:00"
      },
      "geometry": {
        "type": "Point",
        "coordinates": [
          NaN,
          NaN
        ]
      }
    },
    {
      "type": "Feature",
      "properties": {
        "OBJECT_NAME": "GALAXY 28 (G-28)",
        "OBJECT_ID": "2005-022A",
        "EPOCH": "2025-11-29T18:35:04.913952",
        "MEAN_MOTION": 1.00271138,
        "ECCENTRICITY": 0.0002646,
        "INCLINATION": 2.7855,
        "RA_OF_ASC_NODE": 81.4274,
        "ARG_OF_PERICENTER": 177.2635,
        "MEAN_ANOMALY": 0.289,
        "EPHEMERIS_TYPE": 0,
        "CLASSIFICATION_TYPE": "U",
        "NORAD_CAT_ID": 28702,
        "ELEMENT_SET_NO": 999,
        "REV_AT_EPOCH": 4997,
        "BSTAR": 0,
        "MEAN_MOTION_DOT": -1.65e-06,
        "MEAN_MOTION_DDOT": 0,
        "norad_id": 28702,
        "name": "GALAXY 28 (G-28)",
        "group": "intelsat",
        "longitude_deg": NaN,
        "latitude_deg": NaN,
        "alt_km": NaN,
        "orbit_class": "HEO",
        "timestamp": "2025-11-30T04:58:49.599417+00:00"
      },
      "geometry": {
        "type": "Point",
        "coordinates": [
          NaN,
          NaN
        ]
      }
    },
    {
      "type": "Feature",
      "properties": {
        "OBJECT_NAME": "GALAXY 16 (G-16)",
        "OBJECT_ID": "2006-023A",
        "EPOCH": "2025-11-29T15:06:51.932736",
        "MEAN_MOTION": 1.00269305,
        "ECCENTRICITY": 0.0002872,
        "INCLINATION": 0.0171,
        "RA_OF_ASC_NODE": 101.5871,
        "ARG_OF_PERICENTER": 149.8974,
        "MEAN_ANOMALY": 304.9835,
        "EPHEMERIS_TYPE": 0,
        "CLASSIFICATION_TYPE": "U",
        "NORAD_CAT_ID": 29236,
        "ELEMENT_SET_NO": 999,
        "REV_AT_EPOCH": 7097,
        "BSTAR": 0,
        "MEAN_MOTION_DOT": 0,
        "MEAN_MOTION_DDOT": 0,
        "norad_id": 29236,
        "name": "GALAXY 16 (G-16)",
        "group": "intelsat",
        "longitude_deg": NaN,
        "latitude_deg": NaN,
        "alt_km": NaN,
        "orbit_class": "HEO",
        "timestamp": "2025-11-30T04:58:49.599566+00:00"
      },
      "geometry": {
        "type": "Point",
        "coordinates": [
          NaN,
          NaN
        ]
      }
    },
    {
      "type": "Feature",
      "properties": {
        "OBJECT_NAME": "DIRECTV 9S",
        "OBJECT_ID": "2006-043A",
        "EPOCH": "2025-11-29T15:06:14.493024",
        "MEAN_MOTION": 1.00271126,
        "ECCENTRICITY": 0.0003,
        "INCLINATION": 1.9032,
        "RA_OF_ASC_NODE": 83.3549,
        "ARG_OF_PERICENTER": 161.773,
        "MEAN_ANOMALY": 309.0137,
        "EPHEMERIS_TYPE": 0,
        "CLASSIFICATION_TYPE": "U",
        "NORAD_CAT_ID": 29494,
        "ELEMENT_SET_NO": 999,
        "REV_AT_EPOCH": 4938,
        "BSTAR": 0,
        "MEAN_MOTION_DOT": -9.2e-07,
        "MEAN_MOTION_DDOT": 0,
        "norad_id": 29494,
        "name": "DIRECTV 9S",
        "group": "intelsat",
        "longitude_deg": NaN,
        "latitude_deg": NaN,
        "alt_km": NaN,
        "orbit_class": "HEO",
        "timestamp": "2025-11-30T04:58:49.599620+00:00"
      },
      "geometry": {
        "type": "Point",
        "coordinates": [
          NaN,
          NaN
        ]
      }
    },
    {
      "type": "Feature",
      "properties": {
        "OBJECT_NAME": "GALAXY 17 (G-17)",
        "OBJECT_ID": "2007-016B",
        "EPOCH": "2025-11-29T18:36:04.820256",
        "MEAN_MOTION": 1.00270183,
        "ECCENTRICITY": 0.000596,
        "INCLINATION": 2.4644,
        "RA_OF_ASC_NODE": 82.4378,
        "ARG_OF_PERICENTER": 161.8789,
        "MEAN_ANOMALY": 18.6261,
        "EPHEMERIS_TYPE": 0,
        "CLASSIFICATION_TYPE": "U",
        "NORAD_CAT_ID": 31307,
        "ELEMENT_SET_NO": 999,
        "REV_AT_EPOCH": 6780,
        "BSTAR": 0,
        "MEAN_MOTION_DOT": -1.84e-06,
        "MEAN_MOTION_DDOT": 0,
        "norad_id": 31307,
        "name": "GALAXY 17 (G-17)",
        "group": "intelsat",
        "longitude_deg": NaN,
        "latitude_deg": NaN,
        "alt_km": NaN,
        "orbit_class": "HEO",
        "timestamp": "2025-11-30T04:58:49.599764+00:00"
      },
      "geometry": {
        "type": "Point",
        "coordinates": [
          NaN,
          NaN
        ]
      }
    },
    {
      "type": "Feature",
      "properties": {
        "OBJECT_NAME": "DIRECTV 10",
        "OBJECT_ID": "2007-032A",
        "EPOCH": "2025-11-29T13:23:01.876704",
        "MEAN_MOTION": 1.00274026,
        "ECCENTRICITY": 2.34e-05,
        "INCLINATION": 0.0299,
        "RA_OF_ASC_NODE": 163.7973,
        "ARG_OF_PERICENTER": 23.374,
        "MEAN_ANOMALY": 339.5072,
        "EPHEMERIS_TYPE": 0,
        "CLASSIFICATION_TYPE": "U",
        "NORAD_CAT_ID": 31862,
        "ELEMENT_SET_NO": 999,
        "REV_AT_EPOCH": 4359,
        "BSTAR": 0,
        "MEAN_MOTION_DOT": -8.2e-07,
        "MEAN_MOTION_DDOT": 0,
        "norad_id": 31862,
        "name": "DIRECTV 10",
        "group": "intelsat",
        "longitude_deg": NaN,
        "latitude_deg": NaN,
        "alt_km": NaN,
        "orbit_class": "HEO",
        "timestamp": "2025-11-30T04:58:49.599818+00:00"
      },
      "geometry": {
        "type": "Point",
        "coordinates": [
          NaN,
          NaN
        ]
      }
    }
  ]
}