INTELSAT 10-02          
1 28358U 04022A   25333.72050832  .00000010  00000+0  00000+0 0  9996
2 28358   0.0324  78.9238 0000927 188.7573  59.5813  1.00270283 78550
XM-3 (RHYTHM)           
1 28626U 05008A   25333.18533831 -.00000152  00000+0  00000+0 0  9992
2 28626   0.1360  80.3399 0000727 284.3436 308.9712  0.98954999 40617
DIRECTV 8               
1 28659U 05019A   25333.62578105  .00000022  00000+0  00000+0 0  9997
2 28659   0.0272  71.0961 0003083 181.6472 282.2777  1.00271159 75070
GALAXY 28 (G-28)        
1 28702U 05022A   25333.77436243 -.00000165  00000+0  00000+0 0  9991
2 28702   2.7855  81.4274 0002646 177.2635   0.2890  1.00271138 49974
GALAXY 16 (G-16)        
1 29236U 06023A   25333.62976774  .00000000  00000+0  00000+0 0  9995
2 29236   0.0171 101.5871 0002872 149.8974 304.9835  1.00269305 70978
DIRECTV 9S              
1 29494U 06043A   25333.62933441 -.00000092  00000+0  00000+0 0  9999
2 29494   1.9032  83.3549 0003000 161.7730 309.0137  1.00271126 49382
GALAXY 17 (G-17)        
1 31307U 07016B   25333.77505579 -.00000184  00000+0  00000+0 0  9991
2 31307   2.4644  82.4378 0005960 161.8789  18.6261  1.00270183 67805
DIRECTV 10              
1 31862U 07032A   25333.55766061 -.00000082  00000+0  00000+0 0  9993
2 31862   0.0299 163.7973 0000234  23.3740 339.5072  1.00274026 43598
